[{"OBJECT_NAME":"TANDEM-X","OBJECT_ID":"2010-030A","EPOCH":"2026-03-09T12:47:32.131392","MEAN_MOTION":15.19144937,"ECCENTRICITY":0.0001868,"INCLINATION":97.4478,"RA_OF_ASC_NODE":77.6581,"ARG_OF_PERICENTER":98.3695,"MEAN_ANOMALY":261.7752,"EPHEMERIS_TYPE":0,"CLASSIFICATION_TYPE":"U","NORAD_CAT_ID":36605,"ELEMENT_SET_NO":999,"REV_AT_EPOCH":87151,"BSTAR":7.7445e-5,"MEAN_MOTION_DOT":1.559e-5,"MEAN_MOTION_DDOT":0},{"OBJECT_NAME":"STARLINK-1582","OBJECT_ID":"2020-055S","EPOCH":"2026-03-10T00:00:02.999808","MEAN_MOTION":15.18040785,"ECCENTRICITY":8.421e-5,"INCLINATION":53.1034,"RA_OF_ASC_NODE":124.9627,"ARG_OF_PERICENTER":51.2921,"MEAN_ANOMALY":325.0096,"EPHEMERIS_TYPE":0,"CLASSIFICATION_TYPE":"U","NORAD_CAT_ID":46043,"ELEMENT_SET_NO":999,"REV_AT_EPOCH":574,"BSTAR":0.064748428,"MEAN_MOTION_DOT":0.01459793,"MEAN_MOTION_DDOT":0}]
